[
  {
    "name": "STARLINK-36159",
    "noradId": "67079",
    "line1": "1 67079U 25298E   26181.73132867  .00002071  00000+0  18130-3 0  9995",
    "line2": "2 67079  70.0021  89.3025 0002234 265.2461  94.8442 14.98333765 30154"
  },
  {
    "name": "STARLINK-36158",
    "noradId": "67080",
    "line1": "1 67080U 25298F   26181.12614974 -.00017754  00000+0 -14847-2 0  9990",
    "line2": "2 67080  70.0016  90.7955 0002961 287.6120  72.4716 14.98309181 30066"
  },
  {
    "name": "STARLINK-35864",
    "noradId": "67081",
    "line1": "1 67081U 25298G   26181.13449683  .00002929  00000+0  25300-3 0  9998",
    "line2": "2 67081  70.0020  90.8257 0002797 251.8938 108.1917 14.98349445 30062"
  },
  {
    "name": "STARLINK-36035",
    "noradId": "67082",
    "line1": "1 67082U 25298H   26181.74368552  .00001453  00000+0  12951-3 0  9990",
    "line2": "2 67082  70.0023  89.3395 0002538 266.6233  93.4636 14.98332616 30153"
  },
  {
    "name": "STARLINK-36170",
    "noradId": "67083",
    "line1": "1 67083U 25298J   26181.70197009  .00002200  00000+0  19204-3 0  9993",
    "line2": "2 67083  70.0018  89.5851 0002387 267.8344  92.2541 14.98336412 30133"
  },
  {
    "name": "STARLINK-36166",
    "noradId": "67084",
    "line1": "1 67084U 25298K   26181.18041208  .00002797  00000+0  24208-3 0  9996",
    "line2": "2 67084  70.0019  90.9772 0002425 268.8543  91.2338 14.98337524 30068"
  },
  {
    "name": "STARLINK-35794",
    "noradId": "67085",
    "line1": "1 67085U 25298L   26181.75203472  .00002354  00000+0  20500-3 0  9993",
    "line2": "2 67085  70.0014  89.3685 0002764 267.9804  92.1039 14.98336181 30151"
  },
  {
    "name": "STARLINK-35841",
    "noradId": "67086",
    "line1": "1 67086U 25298M   26181.17206366  .00002745  00000+0  23767-3 0  9997",
    "line2": "2 67086  70.0016  90.9467 0002726 266.8140  93.2707 14.98337992 30064"
  },
  {
    "name": "STARLINK-35842",
    "noradId": "67087",
    "line1": "1 67087U 25298N   26181.74802986  .00005019  00000+0  42802-3 0  9999",
    "line2": "2 67087  70.0021  89.3666 0003035 265.4448  94.6364 14.98338872 30156"
  },
  {
    "name": "STARLINK-35882",
    "noradId": "67088",
    "line1": "1 67088U 25298P   26181.18458596  .00000529  00000+0  52113-4 0  9990",
    "line2": "2 67088  70.0017  90.9908 0003190 253.7584 106.3224 14.98331203 30069"
  },
  {
    "name": "STARLINK-35763",
    "noradId": "67089",
    "line1": "1 67089U 25298Q   26181.72299821 -.00001091  00000+0 -83669-4 0  9992",
    "line2": "2 67089  70.0017  89.6646 0003103 267.0737  93.0067 14.98328711 30142"
  },
  {
    "name": "STARLINK-36060",
    "noradId": "67090",
    "line1": "1 67090U 25298R   26181.68961262  .00002293  00000+0  19983-3 0  9994",
    "line2": "2 67090  70.0023  89.5471 0002509 269.0902  90.9969 14.98337057 30141"
  },
  {
    "name": "STARLINK-36097",
    "noradId": "67091",
    "line1": "1 67091U 25298S   26181.10365874  .00096072  00000+0  22952-2 0  9996",
    "line2": "2 67091  69.9936  74.2794 0009351 215.1427 144.9138 15.40987483 30473"
  },
  {
    "name": "STARLINK-35792",
    "noradId": "67092",
    "line1": "1 67092U 25298T   26181.77306925  .00001813  00000+0  15971-3 0  9995",
    "line2": "2 67092  70.0009  89.4367 0002638 266.9719  93.1138 14.98336773 30153"
  },
  {
    "name": "STARLINK-35784",
    "noradId": "67093",
    "line1": "1 67093U 25298U   26181.73952052  .00004534  00000+0  38748-3 0  9990",
    "line2": "2 67093  70.0013  89.3235 0002769 271.7224  88.3618 14.98331880 30155"
  },
  {
    "name": "STARLINK-36202",
    "noradId": "67094",
    "line1": "1 67094U 25298V   26181.73116096  .00004208  00000+0  36017-3 0  9996",
    "line2": "2 67094  70.0018  89.2941 0002805 267.8505  92.2333 14.98338716 30156"
  },
  {
    "name": "STARLINK-36227",
    "noradId": "67095",
    "line1": "1 67095U 25298W   26181.75219810  .00000137  00000+0  19308-4 0  9999",
    "line2": "2 67095  70.0016  89.3624 0003173 257.0552 103.0253 14.98323319 30151"
  },
  {
    "name": "STARLINK-36228",
    "noradId": "67096",
    "line1": "1 67096U 25298X   26181.16371589  .00003028  00000+0  26145-3 0  9995",
    "line2": "2 67096  70.0017  90.9160 0002428 269.3906  90.6975 14.98337175 30064"
  },
  {
    "name": "STARLINK-36222",
    "noradId": "67097",
    "line1": "1 67097U 25298Y   26181.71033522  .00008197  00000+0  69390-3 0  9990",
    "line2": "2 67097  70.0019  89.6135 0002849 272.5267  87.5566 14.98332529 30145"
  },
  {
    "name": "STARLINK-36205",
    "noradId": "67098",
    "line1": "1 67098U 25298Z   26181.74785803  .00002755  00000+0  23855-3 0  9990",
    "line2": "2 67098  70.0020  89.3537 0002883 270.2249  89.8579 14.98335791 30158"
  },
  {
    "name": "STARLINK-36193",
    "noradId": "67099",
    "line1": "1 67099U 25298AA  26181.13466063 -.00000429  00000+0 -28183-4 0  9996",
    "line2": "2 67099  70.0025  90.8355 0002870 248.1230 111.9624 14.98338236 30064"
  },
  {
    "name": "STARLINK-36215",
    "noradId": "67100",
    "line1": "1 67100U 25298AB  26181.75620639  .00001972  00000+0  17297-3 0  9993",
    "line2": "2 67100  70.0024  89.3726 0002701 266.3974  93.6876 14.98336744 30158"
  },
  {
    "name": "STARLINK-36200",
    "noradId": "67101",
    "line1": "1 67101U 25298AC  26181.18057713  .00002716  00000+0  23527-3 0  9998",
    "line2": "2 67101  70.0019  90.9810 0002657 268.8250  91.2605 14.98337399 30060"
  },
  {
    "name": "STARLINK-36255",
    "noradId": "67102",
    "line1": "1 67102U 25299A   26181.66864698  .00017548  00000+0  64551-3 0  9992",
    "line2": "2 67102  42.9973 251.0644 0004095 259.2113 100.8278 15.27584392 30392"
  },
  {
    "name": "STARLINK-36256",
    "noradId": "67103",
    "line1": "1 67103U 25299B   26181.66223935  .00014631  00000+0  53994-3 0  9995",
    "line2": "2 67103  43.0014 251.0168 0002990   7.8404 352.2493 15.27590141 30395"
  },
  {
    "name": "STARLINK-36258",
    "noradId": "67104",
    "line1": "1 67104U 25299C   26181.54558830  .00017584  00000+0  64691-3 0  9994",
    "line2": "2 67104  42.9986 251.8519 0002142 255.8894 104.1720 15.27583630 30377"
  },
  {
    "name": "STARLINK-36261",
    "noradId": "67105",
    "line1": "1 67105U 25299D   26181.53401416  .00014253  00000+0  52617-3 0  9996",
    "line2": "2 67105  43.0010 251.7725 0001923 257.0357 103.0280 15.27598604 30376"
  },
  {
    "name": "STARLINK-36259",
    "noradId": "67106",
    "line1": "1 67106U 25299E   26181.57114728  .00016458  00000+0  60636-3 0  9997",
    "line2": "2 67106  43.0001 251.1870 0000975 272.6121  87.4619 15.27574847 30385"
  },
  {
    "name": "STARLINK-36196",
    "noradId": "67107",
    "line1": "1 67107U 25299F   26181.53531479  .00014397  00000+0  53143-3 0  9995",
    "line2": "2 67107  43.0003 251.7801 0001351 288.8006  71.2699 15.27596039 30373"
  },
  {
    "name": "STARLINK-36208",
    "noradId": "67108",
    "line1": "1 67108U 25299G   26181.56857049  .00020172  00000+0  74020-3 0  9998",
    "line2": "2 67108  43.0017 251.1619 0001828 269.8387  90.2255 15.27595308 30388"
  }
]