OBJECT_NAME,OBJECT_ID,EPOCH,MEAN_MOTION,ECCENTRICITY,INCLINATION,RA_OF_ASC_NODE,ARG_OF_PERICENTER,MEAN_ANOMALY,EPHEMERIS_TYPE,CLASSIFICATION_TYPE,NORAD_CAT_ID,ELEMENT_SET_NO,REV_AT_EPOCH,BSTAR,MEAN_MOTION_DOT,MEAN_MOTION_DDOT
STARLINK-36159,2025-298E,2026-06-30T17:33:06.797088,14.98333765,.0002234,70.0021,89.3025,265.2461,94.8442,0,U,67079,999,3015,.1813E-3,.2071E-4,0
STARLINK-36158,2025-298F,2026-06-30T03:01:39.337536,14.98309181,.00029613,70.0016,90.7955,287.6120,72.4716,0,U,67080,999,3006,-.14847061E-2,-.17754E-3,0
STARLINK-35864,2025-298G,2026-06-30T03:13:40.526112,14.98349445,.00027979,70.0020,90.8257,251.8938,108.1917,0,U,67081,999,3006,.25299842E-3,.2929E-4,0
STARLINK-36035,2025-298H,2026-06-30T17:50:54.428928,14.98332616,.0002538,70.0023,89.3395,266.6233,93.4636,0,U,67082,999,3015,.12951E-3,.1453E-4,0
STARLINK-36170,2025-298J,2026-06-30T16:50:50.215776,14.98336412,.0002387,70.0018,89.5851,267.8344,92.2541,0,U,67083,999,3013,.19204E-3,.22E-4,0
STARLINK-36166,2025-298K,2026-06-30T04:19:47.603712,14.98337524,.00024255,70.0019,90.9772,268.8543,91.2338,0,U,67084,999,3006,.24207758E-3,.2797E-4,0
STARLINK-35794,2025-298L,2026-06-30T18:02:55.799808,14.98336181,.0002764,70.0014,89.3685,267.9804,92.1039,0,U,67085,999,3015,.205E-3,.2354E-4,0
STARLINK-35841,2025-298M,2026-06-30T04:07:46.300224,14.98337992,.00027262,70.0016,90.9467,266.8140,93.2707,0,U,67086,999,3006,.23767047E-3,.2745E-4,0
STARLINK-35842,2025-298N,2026-06-30T17:57:09.779904,14.98338872,.0003035,70.0021,89.3666,265.4448,94.6364,0,U,67087,999,3015,.42802E-3,.5019E-4,0
STARLINK-35882,2025-298P,2026-06-30T04:25:48.226944,14.98331203,.00031909,70.0017,90.9908,253.7584,106.3224,0,U,67088,999,3006,.52113114E-4,.529E-5,0
STARLINK-35763,2025-298Q,2026-06-30T17:21:07.045344,14.98328711,.0003103,70.0017,89.6646,267.0737,93.0067,0,U,67089,999,3014,-.83669E-4,-.1091E-4,0
STARLINK-36060,2025-298R,2026-06-30T16:33:02.530368,14.98337057,.0002509,70.0023,89.5471,269.0902,90.9969,0,U,67090,999,3014,.19983E-3,.2293E-4,0
STARLINK-36097,2025-298S,2026-06-30T02:29:16.115136,15.40987483,.00093513,69.9936,74.2794,215.1427,144.9138,0,U,67091,999,3047,.22952283E-2,.96072E-3,0
STARLINK-35792,2025-298T,2026-06-30T18:33:13.183200,14.98336773,.0002638,70.0009,89.4367,266.9719,93.1138,0,U,67092,999,3015,.15971E-3,.1813E-4,0
STARLINK-35784,2025-298U,2026-06-30T17:44:54.572928,14.98331880,.0002769,70.0013,89.3235,271.7224,88.3618,0,U,67093,999,3015,.38748E-3,.4534E-4,0
STARLINK-36202,2025-298V,2026-06-30T17:32:52.306944,14.98338716,.0002805,70.0018,89.2941,267.8505,92.2333,0,U,67094,999,3015,.36017E-3,.4208E-4,0
STARLINK-36227,2025-298W,2026-06-30T18:03:09.915840,14.98323319,.0003173,70.0016,89.3624,257.0552,103.0253,0,U,67095,999,3015,.19308E-4,.137E-5,0
STARLINK-36228,2025-298X,2026-06-30T03:55:45.052896,14.98337175,.00024286,70.0017,90.9160,269.3906,90.6975,0,U,67096,999,3006,.26144769E-3,.3028E-4,0
STARLINK-36222,2025-298Y,2026-06-30T17:02:52.963008,14.98332529,.0002849,70.0019,89.6135,272.5267,87.5566,0,U,67097,999,3014,.6939E-3,.8197E-4,0
STARLINK-36205,2025-298Z,2026-06-30T17:56:54.933792,14.98335791,.0002883,70.0020,89.3537,270.2249,89.8579,0,U,67098,999,3015,.23855E-3,.2755E-4,0
STARLINK-36193,2025-298AA,2026-06-30T03:13:54.678432,14.98338236,.00028702,70.0025,90.8355,248.1230,111.9624,0,U,67099,999,3006,-.28183457E-4,-.429E-5,0
STARLINK-36215,2025-298AB,2026-06-30T18:08:56.232096,14.98336744,.0002701,70.0024,89.3726,266.3974,93.6876,0,U,67100,999,3015,.17297E-3,.1972E-4,0
STARLINK-36200,2025-298AC,2026-06-30T04:20:01.864032,14.98337399,.00026573,70.0019,90.9810,268.8250,91.2605,0,U,67101,999,3006,.23526803E-3,.2716E-4,0
STARLINK-36255,2025-299A,2026-06-30T16:02:51.099072,15.27584392,.0004095,42.9973,251.0644,259.2113,100.8278,0,U,67102,999,3039,.64551E-3,.17548E-3,0
STARLINK-36256,2025-299B,2026-06-30T15:53:37.479840,15.27590141,.000299,43.0014,251.0168,7.8404,352.2493,0,U,67103,999,3039,.53994E-3,.14631E-3,0
STARLINK-36258,2025-299C,2026-06-30T13:05:38.829120,15.27583630,.0002142,42.9986,251.8519,255.8894,104.1720,0,U,67104,999,3037,.64691E-3,.17584E-3,0
STARLINK-36261,2025-299D,2026-06-30T12:48:58.823424,15.27598604,.00019238,43.0010,251.7725,257.0357,103.0280,0,U,67105,999,3037,.52617179E-3,.14253E-3,0
STARLINK-36259,2025-299E,2026-06-30T13:42:27.124992,15.27574847,.0000975,43.0001,251.1870,272.6121,87.4619,0,U,67106,999,3038,.60636E-3,.16458E-3,0
STARLINK-36196,2025-299F,2026-06-30T12:50:51.197856,15.27596039,.00013511,43.0003,251.7801,288.8006,71.2699,0,U,67107,999,3037,.53142634E-3,.14397E-3,0
STARLINK-36208,2025-299G,2026-06-30T13:38:44.490336,15.27595308,.0001828,43.0017,251.1619,269.8387,90.2255,0,U,67108,999,3038,.7402E-3,.20172E-3,0
